start=new Date('2021-10-18T00:00:00.000Z').valueOf();
sats=[{"LAUNCH_DATE":"2020-10-24","OBJECT_NAME":"STARLINK-1835","COUNTRY_CODE":"US","CLASSIFICATION_TYPE":"U","INCLINATION":"53.0528","EPOCH":"2021-10-17T06:53:15.986112","ECCENTRICITY":"0.00013980","APOAPSIS":"548.211","OBJECT_ID":"2020-074AV","MEAN_MOTION_DOT":"0.00000289","EPHEMERIS_TYPE":"0","MEAN_ANOMALY":"271.3949","FILE":"3168566","ARG_OF_PERICENTER":"88.7201","DECAY_DATE":null,"MEAN_MOTION":"15.06390293","GP_ID":"187444944","NORAD_CAT_ID":"46782","PERIAPSIS":"546.275","MEAN_ELEMENT_THEORY":"SGP4","ELEMENT_SET_NO":"999","RCS_SIZE":"LARGE","OBJECT_TYPE":"PAYLOAD","RA_OF_ASC_NODE":"314.0736","MEAN_MOTION_DDOT":"0.0000000000000","REV_AT_EPOCH":"5499","SEMIMAJOR_AXIS":"6925.378","TLE_LINE2":"2 46782  53.0528 314.0736 0001398  88.7201 271.3949 15.06390293 54993","PERIOD":"95.593","CENTER_NAME":"EARTH","SITE":"AFETR","TIME_SYSTEM":"UTC","REF_FRAME":"TEME","TLE_LINE1":"1 46782U 20074AV  21290.28699058  .00000289  00000-0  38273-4 0  9997","BSTAR":"0.00003827300000"},{"DECAY_DATE":null,"FILE":"3168566","ARG_OF_PERICENTER":"83.4668","MEAN_ANOMALY":"276.6449","EPHEMERIS_TYPE":"0","MEAN_MOTION_DOT":"0.00001719","OBJECT_ID":"2020-074AW","APOAPSIS":"548.007","ECCENTRICITY":"0.00011320","EPOCH":"2021-10-17T07:14:29.781312","GP_ID":"187445694","PERIAPSIS":"546.439","NORAD_CAT_ID":"46783","MEAN_ELEMENT_THEORY":"SGP4","MEAN_MOTION":"15.06396777","COUNTRY_CODE":"US","OBJECT_NAME":"STARLINK-1851","LAUNCH_DATE":"2020-10-24","INCLINATION":"53.0568","CLASSIFICATION_TYPE":"U","SEMIMAJOR_AXIS":"6925.358","BSTAR":"0.00013429000000","TLE_LINE1":"1 46783U 20074AW  21290.30173358  .00001719  00000-0  13429-3 0  9995","REF_FRAME":"TEME","TIME_SYSTEM":"UTC","SITE":"AFETR","PERIOD":"95.592","CENTER_NAME":"EARTH","TLE_LINE2":"2 46783  53.0568 313.9907 0001132  83.4668 276.6449 15.06396777 54997","RCS_SIZE":"LARGE","ELEMENT_SET_NO":"999","REV_AT_EPOCH":"5499","MEAN_MOTION_DDOT":"0.0000000000000","OBJECT_TYPE":"PAYLOAD","RA_OF_ASC_NODE":"313.9907"},{"REF_FRAME":"TEME","TIME_SYSTEM":"UTC","BSTAR":"0.00019184000000","TLE_LINE1":"1 46784U 20074AX  21290.30542903  .00002577  00000-0  19184-3 0  9999","PERIOD":"95.593","CENTER_NAME":"EARTH","TLE_LINE2":"2 46784  53.0539 313.9683 0001370  81.2503 278.8641 15.06393592 54995","SITE":"AFETR","SEMIMAJOR_AXIS":"6925.368","MEAN_MOTION_DDOT":"0.0000000000000","REV_AT_EPOCH":"5499","OBJECT_TYPE":"PAYLOAD","RA_OF_ASC_NODE":"313.9683","ELEMENT_SET_NO":"999","RCS_SIZE":"LARGE","MEAN_ELEMENT_THEORY":"SGP4","GP_ID":"187444442","PERIAPSIS":"546.284","NORAD_CAT_ID":"46784","MEAN_MOTION":"15.06393592","EPHEMERIS_TYPE":"0","MEAN_ANOMALY":"278.8641","MEAN_MOTION_DOT":"0.00002577","DECAY_DATE":null,"ARG_OF_PERICENTER":"81.2503","FILE":"3168566","APOAPSIS":"548.182","ECCENTRICITY":"0.00013700","EPOCH":"2021-10-17T07:19:49.068192","OBJECT_ID":"2020-074AX","CLASSIFICATION_TYPE":"U","INCLINATION":"53.0539","COUNTRY_CODE":"US","OBJECT_NAME":"STARLINK-1882","LAUNCH_DATE":"2020-10-24"},{"CLASSIFICATION_TYPE":"U","INCLINATION":"53.0564","OBJECT_NAME":"STARLINK-1883","COUNTRY_CODE":"US","LAUNCH_DATE":"2020-10-24","PERIAPSIS":"544.098","GP_ID":"187444692","NORAD_CAT_ID":"46785","MEAN_ELEMENT_THEORY":"SGP4","MEAN_MOTION":"15.06403895","MEAN_MOTION_DOT":"0.00000968","MEAN_ANOMALY":"150.5706","EPHEMERIS_TYPE":"0","ARG_OF_PERICENTER":"209.5030","FILE":"3168566","DECAY_DATE":null,"EPOCH":"2021-10-17T06:58:32.880576","ECCENTRICITY":"0.00044820","APOAPSIS":"550.306","OBJECT_ID":"2020-074AY","MEAN_MOTION_DDOT":"0.0000000000000","REV_AT_EPOCH":"5499","OBJECT_TYPE":"PAYLOAD","RA_OF_ASC_NODE":"314.0536","ELEMENT_SET_NO":"999","RCS_SIZE":"LARGE","TIME_SYSTEM":"UTC","REF_FRAME":"TEME","TLE_LINE1":"1 46785U 20074AY  21290.29065834  .00000968  00000-0  83897-4 0  9996","BSTAR":"0.00008389700000","TLE_LINE2":"2 46785  53.0564 314.0536 0004482 209.5030 150.5706 15.06403895 54996","CENTER_NAME":"EARTH","PERIOD":"95.592","SITE":"AFETR","SEMIMAJOR_AXIS":"6925.337"},{"MEAN_MOTION":"15.06399197","GP_ID":"187445444","PERIAPSIS":"543.136","NORAD_CAT_ID":"46786","MEAN_ELEMENT_THEORY":"SGP4","OBJECT_ID":"2020-074AZ","ECCENTRICITY":"0.00058920","EPOCH":"2021-10-17T06:29:22.533216","APOAPSIS":"551.296","ARG_OF_PERICENTER":"11.1514","FILE":"3168566","DECAY_DATE":null,"MEAN_MOTION_DOT":"0.00000947","MEAN_ANOMALY":"348.9605","EPHEMERIS_TYPE":"0","INCLINATION":"53.0528","CLASSIFICATION_TYPE":"U","LAUNCH_DATE":"2020-10-24","OBJECT_NAME":"STARLINK-1893","COUNTRY_CODE":"US","SITE":"AFETR","TLE_LINE2":"2 46786  53.0528 294.1292 0005892  11.1514 348.9605 15.06399197 55276","PERIOD":"95.592","CENTER_NAME":"EARTH","TLE_LINE1":"1 46786U 20074AZ  21290.27039969  .00000947  00000-0  82534-4 0  9999","BSTAR":"0.00008253400000","TIME_SYSTEM":"UTC","REF_FRAME":"TEME","SEMIMAJOR_AXIS":"6925.351","OBJECT_TYPE":"PAYLOAD","RA_OF_ASC_NODE":"294.1292","REV_AT_EPOCH":"5527","MEAN_MOTION_DDOT":"0.0000000000000","RCS_SIZE":"LARGE","ELEMENT_SET_NO":"999"},{"SITE":"AFETR","CENTER_NAME":"EARTH","PERIOD":"95.593","TLE_LINE2":"2 46787  53.0512 294.1673 0005402 328.4340  31.6324 15.06390646 55275","BSTAR":"0.00020254000000","TLE_LINE1":"1 46787U 20074BA  21290.26303913  .00002735  00000-0  20254-3 0  9999","REF_FRAME":"TEME","TIME_SYSTEM":"UTC","SEMIMAJOR_AXIS":"6925.377","OBJECT_TYPE":"PAYLOAD","RA_OF_ASC_NODE":"294.1673","REV_AT_EPOCH":"5527","MEAN_MOTION_DDOT":"0.0000000000000","RCS_SIZE":"LARGE","ELEMENT_SET_NO":"999","MEAN_MOTION":"15.06390646","GP_ID":"187445195","PERIAPSIS":"543.501","NORAD_CAT_ID":"46787","MEAN_ELEMENT_THEORY":"SGP4","OBJECT_ID":"2020-074BA","APOAPSIS":"550.983","ECCENTRICITY":"0.00054020","EPOCH":"2021-10-17T06:18:46.580832","DECAY_DATE":null,"ARG_OF_PERICENTER":"328.4340","FILE":"3168566","EPHEMERIS_TYPE":"0","MEAN_ANOMALY":"31.6324","MEAN_MOTION_DOT":"0.00002735","INCLINATION":"53.0512","CLASSIFICATION_TYPE":"U","LAUNCH_DATE":"2020-10-24","COUNTRY_CODE":"US","OBJECT_NAME":"STARLINK-1899"},{"SEMIMAJOR_AXIS":"6925.388","REF_FRAME":"TEME","TIME_SYSTEM":"UTC","BSTAR":"0.00009186700000","TLE_LINE1":"1 46788U 20074BB  21290.25567676  .00001085  00000-0  91867-4 0  9993","CENTER_NAME":"EARTH","PERIOD":"95.593","TLE_LINE2":"2 46788  53.0566 294.2019 0007002  13.7058 346.4119 15.06387075 55279","SITE":"AFETR","ELEMENT_SET_NO":"999","RCS_SIZE":"LARGE","MEAN_MOTION_DDOT":"0.0000000000000","REV_AT_EPOCH":"5527","RA_OF_ASC_NODE":"294.2019","OBJECT_TYPE":"PAYLOAD","MEAN_ANOMALY":"346.4119","EPHEMERIS_TYPE":"0","MEAN_MOTION_DOT":"0.00001085","DECAY_DATE":null,"ARG_OF_PERICENTER":"13.7058","FILE":"3168566","APOAPSIS":"552.102","EPOCH":"2021-10-17T06:08:10.472064","ECCENTRICITY":"0.00070020","OBJECT_ID":"2020-074BB","PERIAPSIS":"542.404","GP_ID":"187443943","NORAD_CAT_ID":"46788","MEAN_ELEMENT_THEORY":"SGP4","MEAN_MOTION":"15.06387075","COUNTRY_CODE":"US","OBJECT_NAME":"STARLINK-1929","LAUNCH_DATE":"2020-10-24","CLASSIFICATION_TYPE":"U","INCLINATION":"53.0566"},{"MEAN_MOTION_DDOT":"0.0000000000000","REV_AT_EPOCH":"5485","OBJECT_TYPE":"PAYLOAD","RA_OF_ASC_NODE":"324.1712","ELEMENT_SET_NO":"999","RCS_SIZE":"LARGE","TIME_SYSTEM":"UTC","REF_FRAME":"TEME","TLE_LINE1":"1 46789U 20074BC  21290.26302059  .00003077  00000-0  22540-3 0  9991","BSTAR":"0.00022540000000","TLE_LINE2":"2 46789  53.0545 324.1712 0001254  83.4674 276.6457 15.06391972 54854","PERIOD":"95.593","CENTER_NAME":"EARTH","SITE":"AFETR","SEMIMAJOR_AXIS":"6925.373","CLASSIFICATION_TYPE":"U","INCLINATION":"53.0545","OBJECT_NAME":"STARLINK-1930","COUNTRY_CODE":"US","LAUNCH_DATE":"2020-10-24","NORAD_CAT_ID":"46789","GP_ID":"187444193","PERIAPSIS":"546.370","MEAN_ELEMENT_THEORY":"SGP4","MEAN_MOTION":"15.06391972","MEAN_MOTION_DOT":"0.00003077","MEAN_ANOMALY":"276.6457","EPHEMERIS_TYPE":"0","FILE":"3168566","ARG_OF_PERICENTER":"83.4674","DECAY_DATE":null,"EPOCH":"2021-10-17T06:18:44.978976","ECCENTRICITY":"0.00012540","APOAPSIS":"548.107","OBJECT_ID":"2020-074BC"},{"ELEMENT_SET_NO":"999","RCS_SIZE":"LARGE","RA_OF_ASC_NODE":"324.2573","OBJECT_TYPE":"PAYLOAD","MEAN_MOTION_DDOT":"0.0000000000000","REV_AT_EPOCH":"5484","SEMIMAJOR_AXIS":"6925.350","PERIOD":"95.592","CENTER_NAME":"EARTH","TLE_LINE2":"2 46790  53.0557 324.2573 0001214  75.8729 284.2395 15.06399458 54849","SITE":"AFETR","REF_FRAME":"TEME","TIME_SYSTEM":"UTC","BSTAR":"-0.00000321590000","TLE_LINE1":"1 46790U 20074BD  21290.24182706 -.00000329  00000-0 -32159-5 0  9994","LAUNCH_DATE":"2020-10-24","COUNTRY_CODE":"US","OBJECT_NAME":"STARLINK-1931","CLASSIFICATION_TYPE":"U","INCLINATION":"53.0557","APOAPSIS":"548.056","EPOCH":"2021-10-17T05:48:13.857984","ECCENTRICITY":"0.00012140","OBJECT_ID":"2020-074BD","EPHEMERIS_TYPE":"0","MEAN_ANOMALY":"284.2395","MEAN_MOTION_DOT":"-0.00000329","DECAY_DATE":null,"FILE":"3168566","ARG_OF_PERICENTER":"75.8729","MEAN_MOTION":"15.06399458","MEAN_ELEMENT_THEORY":"SGP4","GP_ID":"187444945","PERIAPSIS":"546.374","NORAD_CAT_ID":"46790"},{"INCLINATION":"53.0538","CLASSIFICATION_TYPE":"U","LAUNCH_DATE":"2020-10-24","OBJECT_NAME":"STARLINK-1933","COUNTRY_CODE":"US","MEAN_MOTION":"15.06394050","NORAD_CAT_ID":"46791","GP_ID":"187445695","PERIAPSIS":"546.343","MEAN_ELEMENT_THEORY":"SGP4","OBJECT_ID":"2020-074BE","EPOCH":"2021-10-17T06:09:29.201472","ECCENTRICITY":"0.00012840","APOAPSIS":"548.121","ARG_OF_PERICENTER":"81.1685","FILE":"3168566","DECAY_DATE":null,"MEAN_MOTION_DOT":"0.00002445","MEAN_ANOMALY":"278.9450","EPHEMERIS_TYPE":"0","OBJECT_TYPE":"PAYLOAD","RA_OF_ASC_NODE":"324.2092","REV_AT_EPOCH":"5485","MEAN_MOTION_DDOT":"0.0000000000000","RCS_SIZE":"LARGE","ELEMENT_SET_NO":"999","SITE":"AFETR","TLE_LINE2":"2 46791  53.0538 324.2092 0001284  81.1685 278.9450 15.06394050 54859","CENTER_NAME":"EARTH","PERIOD":"95.593","TLE_LINE1":"1 46791U 20074BE  21290.25658798  .00002445  00000-0  18302-3 0  9996","BSTAR":"0.00018302000000","TIME_SYSTEM":"UTC","REF_FRAME":"TEME","SEMIMAJOR_AXIS":"6925.367"}];
